[{"OBJECT_NAME":"STARLINK-36385","OBJECT_ID":"2026-025AA","EPOCH":"2026-03-04T06:19:55.775136","MEAN_MOTION":15.80942452,"ECCENTRICITY":4.65e-5,"INCLINATION":97.2862,"RA_OF_ASC_NODE":174.6885,"ARG_OF_PERICENTER":75.5576,"MEAN_ANOMALY":284.5743,"EPHEMERIS_TYPE":0,"CLASSIFICATION_TYPE":"U","NORAD_CAT_ID":67717,"ELEMENT_SET_NO":999,"REV_AT_EPOCH":509,"BSTAR":0.0014347,"MEAN_MOTION_DOT":0.00285513,"MEAN_MOTION_DDOT":0},{"OBJECT_NAME":"CZ-2F DEB","OBJECT_ID":"2026-024E","EPOCH":"2026-02-27T12:10:33.167712","MEAN_MOTION":15.20915897,"ECCENTRICITY":0.02465096,"INCLINATION":50.3169,"RA_OF_ASC_NODE":68.583,"ARG_OF_PERICENTER":240.0171,"MEAN_ANOMALY":117.6115,"EPHEMERIS_TYPE":0,"CLASSIFICATION_TYPE":"U","NORAD_CAT_ID":67718,"ELEMENT_SET_NO":999,"REV_AT_EPOCH":308,"BSTAR":0.0035886422,"MEAN_MOTION_DOT":0.00191604,"MEAN_MOTION_DDOT":0},{"OBJECT_NAME":"CZ-2F DEB","OBJECT_ID":"2026-024F","EPOCH":"2026-03-04T10:17:07.617696","MEAN_MOTION":15.01983894,"ECCENTRICITY":0.0316605,"INCLINATION":49.7925,"RA_OF_ASC_NODE":47.2373,"ARG_OF_PERICENTER":250.3794,"MEAN_ANOMALY":106.2724,"EPHEMERIS_TYPE":0,"CLASSIFICATION_TYPE":"U","NORAD_CAT_ID":67719,"ELEMENT_SET_NO":999,"REV_AT_EPOCH":345,"BSTAR":0.004699,"MEAN_MOTION_DOT":0.00195013,"MEAN_MOTION_DDOT":0},{"OBJECT_NAME":"CZ-2F DEB","OBJECT_ID":"2026-024G","EPOCH":"2026-03-04T09:45:50.650272","MEAN_MOTION":14.99277874,"ECCENTRICITY":0.032744,"INCLINATION":49.8314,"RA_OF_ASC_NODE":47.8837,"ARG_OF_PERICENTER":246.4592,"MEAN_ANOMALY":110.1638,"EPHEMERIS_TYPE":0,"CLASSIFICATION_TYPE":"U","NORAD_CAT_ID":67720,"ELEMENT_SET_NO":999,"REV_AT_EPOCH":376,"BSTAR":0.0046336,"MEAN_MOTION_DOT":0.00186952,"MEAN_MOTION_DDOT":0},{"OBJECT_NAME":"STARLINK-36772","OBJECT_ID":"2026-026A","EPOCH":"2026-03-04T10:00:01.999584","MEAN_MOTION":15.68465068,"ECCENTRICITY":0.0001689,"INCLINATION":97.2842,"RA_OF_ASC_NODE":117.8103,"ARG_OF_PERICENTER":72.342,"MEAN_ANOMALY":128.2627,"EPHEMERIS_TYPE":0,"CLASSIFICATION_TYPE":"U","NORAD_CAT_ID":67721,"ELEMENT_SET_NO":999,"REV_AT_EPOCH":446,"BSTAR":-0.019302,"MEAN_MOTION_DOT":-0.01924955,"MEAN_MOTION_DDOT":0},{"OBJECT_NAME":"STARLINK-36796","OBJECT_ID":"2026-026B","EPOCH":"2026-03-04T10:00:01.999584","MEAN_MOTION":15.67593815,"ECCENTRICITY":0.0001716,"INCLINATION":97.2842,"RA_OF_ASC_NODE":117.8095,"ARG_OF_PERICENTER":75.8678,"MEAN_ANOMALY":122.9141,"EPHEMERIS_TYPE":0,"CLASSIFICATION_TYPE":"U","NORAD_CAT_ID":67722,"ELEMENT_SET_NO":999,"REV_AT_EPOCH":446,"BSTAR":-0.020022,"MEAN_MOTION_DOT":-0.01926496,"MEAN_MOTION_DDOT":0},{"OBJECT_NAME":"STARLINK-36369","OBJECT_ID":"2026-026C","EPOCH":"2026-03-04T10:00:01.999584","MEAN_MOTION":15.67997622,"ECCENTRICITY":0.0001708,"INCLINATION":97.2843,"RA_OF_ASC_NODE":117.814,"ARG_OF_PERICENTER":74.7359,"MEAN_ANOMALY":134.3487,"EPHEMERIS_TYPE":0,"CLASSIFICATION_TYPE":"U","NORAD_CAT_ID":67723,"ELEMENT_SET_NO":999,"REV_AT_EPOCH":446,"BSTAR":-0.019698,"MEAN_MOTION_DOT":-0.01926877,"MEAN_MOTION_DDOT":0},{"OBJECT_NAME":"STARLINK-36752","OBJECT_ID":"2026-026D","EPOCH":"2026-03-04T10:00:01.999584","MEAN_MOTION":15.69291053,"ECCENTRICITY":0.0001707,"INCLINATION":97.2839,"RA_OF_ASC_NODE":117.8233,"ARG_OF_PERICENTER":78.9752,"MEAN_ANOMALY":151.1909,"EPHEMERIS_TYPE":0,"CLASSIFICATION_TYPE":"U","NORAD_CAT_ID":67724,"ELEMENT_SET_NO":999,"REV_AT_EPOCH":446,"BSTAR":-0.018716,"MEAN_MOTION_DOT":-0.01930618,"MEAN_MOTION_DDOT":0},{"OBJECT_NAME":"STARLINK-36754","OBJECT_ID":"2026-026E","EPOCH":"2026-03-04T10:00:01.999584","MEAN_MOTION":15.66709798,"ECCENTRICITY":0.0001702,"INCLINATION":97.2843,"RA_OF_ASC_NODE":117.8136,"ARG_OF_PERICENTER":76.2686,"MEAN_ANOMALY":131.6266,"EPHEMERIS_TYPE":0,"CLASSIFICATION_TYPE":"U","NORAD_CAT_ID":67725,"ELEMENT_SET_NO":999,"REV_AT_EPOCH":446,"BSTAR":-0.020842,"MEAN_MOTION_DOT":-0.01933588,"MEAN_MOTION_DDOT":0},{"OBJECT_NAME":"STARLINK-36755","OBJECT_ID":"2026-026F","EPOCH":"2026-03-04T10:00:01.999584","MEAN_MOTION":15.64261087,"ECCENTRICITY":0.0001759,"INCLINATION":97.2843,"RA_OF_ASC_NODE":117.8031,"ARG_OF_PERICENTER":75.3545,"MEAN_ANOMALY":108.1294,"EPHEMERIS_TYPE":0,"CLASSIFICATION_TYPE":"U","NORAD_CAT_ID":67726,"ELEMENT_SET_NO":999,"REV_AT_EPOCH":446,"BSTAR":-0.022986,"MEAN_MOTION_DOT":-0.01933038,"MEAN_MOTION_DDOT":0},{"OBJECT_NAME":"STARLINK-36741","OBJECT_ID":"2026-026G","EPOCH":"2026-03-04T10:00:01.999584","MEAN_MOTION":15.65382951,"ECCENTRICITY":0.000171,"INCLINATION":97.2843,"RA_OF_ASC_NODE":117.812,"ARG_OF_PERICENTER":78.2313,"MEAN_ANOMALY":125.5713,"EPHEMERIS_TYPE":0,"CLASSIFICATION_TYPE":"U","NORAD_CAT_ID":67727,"ELEMENT_SET_NO":999,"REV_AT_EPOCH":446,"BSTAR":-0.02192,"MEAN_MOTION_DOT":-0.01928329,"MEAN_MOTION_DDOT":0},{"OBJECT_NAME":"STARLINK-36757","OBJECT_ID":"2026-026H","EPOCH":"2026-03-04T10:00:01.999584","MEAN_MOTION":15.69852675,"ECCENTRICITY":0.0001593,"INCLINATION":97.2845,"RA_OF_ASC_NODE":117.8365,"ARG_OF_PERICENTER":81.6738,"MEAN_ANOMALY":179.3951,"EPHEMERIS_TYPE":0,"CLASSIFICATION_TYPE":"U","NORAD_CAT_ID":67728,"ELEMENT_SET_NO":999,"REV_AT_EPOCH":446,"BSTAR":-0.018304,"MEAN_MOTION_DOT":-0.019324,"MEAN_MOTION_DDOT":0},{"OBJECT_NAME":"STARLINK-36751","OBJECT_ID":"2026-026J","EPOCH":"2026-03-04T10:00:01.999584","MEAN_MOTION":15.70412416,"ECCENTRICITY":0.0001556,"INCLINATION":97.284,"RA_OF_ASC_NODE":117.8452,"ARG_OF_PERICENTER":73.4688,"MEAN_ANOMALY":206.8718,"EPHEMERIS_TYPE":0,"CLASSIFICATION_TYPE":"U","NORAD_CAT_ID":67729,"ELEMENT_SET_NO":999,"REV_AT_EPOCH":446,"BSTAR":-0.01781,"MEAN_MOTION_DOT":-0.01887587,"MEAN_MOTION_DDOT":0},{"OBJECT_NAME":"STARLINK-36747","OBJECT_ID":"2026-026K","EPOCH":"2026-03-04T10:00:01.999584","MEAN_MOTION":15.70324236,"ECCENTRICITY":0.0001538,"INCLINATION":97.2837,"RA_OF_ASC_NODE":117.8408,"ARG_OF_PERICENTER":76.3507,"MEAN_ANOMALY":194.5362,"EPHEMERIS_TYPE":0,"CLASSIFICATION_TYPE":"U","NORAD_CAT_ID":67730,"ELEMENT_SET_NO":999,"REV_AT_EPOCH":446,"BSTAR":-0.017997,"MEAN_MOTION_DOT":-0.01937099,"MEAN_MOTION_DDOT":0},{"OBJECT_NAME":"STARLINK-36315","OBJECT_ID":"2026-026L","EPOCH":"2026-03-04T10:00:01.999584","MEAN_MOTION":15.70591019,"ECCENTRICITY":0.0001443,"INCLINATION":97.284,"RA_OF_ASC_NODE":117.8482,"ARG_OF_PERICENTER":86.1649,"MEAN_ANOMALY":201.2069,"EPHEMERIS_TYPE":0,"CLASSIFICATION_TYPE":"U","NORAD_CAT_ID":67731,"ELEMENT_SET_NO":999,"REV_AT_EPOCH":446,"BSTAR":-0.017641,"MEAN_MOTION_DOT":-0.01884159,"MEAN_MOTION_DDOT":0},{"OBJECT_NAME":"STARLINK-36260","OBJECT_ID":"2026-026M","EPOCH":"2026-03-04T10:00:01.999584","MEAN_MOTION":15.70969113,"ECCENTRICITY":0.0001467,"INCLINATION":97.284,"RA_OF_ASC_NODE":117.8523,"ARG_OF_PERICENTER":69.8798,"MEAN_ANOMALY":227.4811,"EPHEMERIS_TYPE":0,"CLASSIFICATION_TYPE":"U","NORAD_CAT_ID":67732,"ELEMENT_SET_NO":999,"REV_AT_EPOCH":446,"BSTAR":-0.017344,"MEAN_MOTION_DOT":-0.01882431,"MEAN_MOTION_DDOT":0},{"OBJECT_NAME":"STARLINK-36746","OBJECT_ID":"2026-026N","EPOCH":"2026-03-04T10:00:01.999584","MEAN_MOTION":15.50777991,"ECCENTRICITY":0.000155,"INCLINATION":97.2841,"RA_OF_ASC_NODE":117.7075,"ARG_OF_PERICENTER":68.9495,"MEAN_ANOMALY":250.3813,"EPHEMERIS_TYPE":0,"CLASSIFICATION_TYPE":"U","NORAD_CAT_ID":67733,"ELEMENT_SET_NO":999,"REV_AT_EPOCH":446,"BSTAR":-0.035162,"MEAN_MOTION_DOT":-0.01796557,"MEAN_MOTION_DDOT":0}]
