STARLINK-36385          
1 67717U 26025AA  26063.26383999  .00285513  00000+0  14347-2 0  9993
2 67717  97.2862 174.6885 0000465  75.5576 284.5743 15.80942452  5090
CZ-2F DEB               
1 67718U 26024E   26058.50732833  .00191604  00000+0  35886-2 0  9997
2 67718  50.3169  68.5830 0246509 240.0171 117.6115 15.20915897  3086
CZ-2F DEB               
1 67719U 26024F   26063.42856039  .00195013  00000+0  46990-2 0  9996
2 67719  49.7925  47.2373 0316605 250.3794 106.2724 15.01983894  3457
CZ-2F DEB               
1 67720U 26024G   26063.40683623  .00186952  00000+0  46336-2 0  9999
2 67720  49.8314  47.8837 0327440 246.4592 110.1638 14.99277874  3766
STARLINK-36772          
1 67721U 26026A   26063.41668981 -.01924955  00000+0 -19302-1 0  9991
2 67721  97.2842 117.8103 0001689  72.3420 128.2627 15.68465068  4461
STARLINK-36796          
1 67722U 26026B   26063.41668981 -.01926496  00000+0 -20022-1 0  9995
2 67722  97.2842 117.8095 0001716  75.8678 122.9141 15.67593815  4469
STARLINK-36369          
1 67723U 26026C   26063.41668981 -.01926877  00000+0 -19698-1 0  9996
2 67723  97.2843 117.8140 0001708  74.7359 134.3487 15.67997622  4461
STARLINK-36752          
1 67724U 26026D   26063.41668981 -.01930618  00000+0 -18716-1 0  9995
2 67724  97.2839 117.8233 0001707  78.9752 151.1909 15.69291053  4465
STARLINK-36754          
1 67725U 26026E   26063.41668981 -.01933588  00000+0 -20842-1 0  9998
2 67725  97.2843 117.8136 0001702  76.2686 131.6266 15.66709798  4461
STARLINK-36755          
1 67726U 26026F   26063.41668981 -.01933038  00000+0 -22986-1 0  9990
2 67726  97.2843 117.8031 0001759  75.3545 108.1294 15.64261087  4464
STARLINK-36741          
1 67727U 26026G   26063.41668981 -.01928329  00000+0 -21920-1 0  9995
2 67727  97.2843 117.8120 0001710  78.2313 125.5713 15.65382951  4460
STARLINK-36757          
1 67728U 26026H   26063.41668981 -.01932400  00000+0 -18304-1 0  9993
2 67728  97.2845 117.8365 0001593  81.6738 179.3951 15.69852675  4462
STARLINK-36751          
1 67729U 26026J   26063.41668981 -.01887587  00000+0 -17810-1 0  9990
2 67729  97.2840 117.8452 0001556  73.4688 206.8718 15.70412416  4461
STARLINK-36747          
1 67730U 26026K   26063.41668981 -.01937099  00000+0 -17997-1 0  9992
2 67730  97.2837 117.8408 0001538  76.3507 194.5362 15.70324236  4462
STARLINK-36315          
1 67731U 26026L   26063.41668981 -.01884159  00000+0 -17641-1 0  9997
2 67731  97.2840 117.8482 0001443  86.1649 201.2069 15.70591019  4465
STARLINK-36260          
1 67732U 26026M   26063.41668981 -.01882431  00000+0 -17344-1 0  9999
2 67732  97.2840 117.8523 0001467  69.8798 227.4811 15.70969113  4460
STARLINK-36746          
1 67733U 26026N   26063.41668981 -.01796557  00000+0 -35162-1 0  9991
2 67733  97.2841 117.7075 0001550  68.9495 250.3813 15.50777991  4466
